CAS-2T & KS-1Q          
1 41847U 16066G   20198.43011396  .00000057  00000-0  18365-4 0  9999
2 41847  98.6518 249.2363 0366464 142.4585 220.2807 14.38077759193588
NAYIF-1 (EO-88)         
1 42017U 17008BX  20198.45672414  .00001020  00000-0  41767-4 0  9995
2 42017  97.3584 265.5949 0005327 204.5061 155.5925 15.26562977189973
MAX VALIER SAT          
1 42778U 17036P   20198.45512333  .00000578  00000-0  27753-4 0  9999
2 42778  97.3029 251.2864 0010388 281.8958  78.1114 15.22661724170140
RADFXSAT (FOX-1B)       
1 43017U 17073E   20198.54902017  .00000335  00000-0  32010-4 0  9992
2 43017  97.7215 109.6621 0255870 315.8480  42.2557 14.78970713143469
FOX-1D (AO-92)          
1 43137U 18004AC  20198.43686949  .00000617  00000-0  28298-4 0  9997
2 43137  97.4446 269.4007 0007962 322.5415  37.5266 15.24167791139463
DIWATA-2B               
1 43678U 18084H   20198.72191400  .00000030  00000-0  87306-5 0  9995
2 43678  97.8878 317.1289 0011381  80.5828 279.6670 14.91639703 93386
ES'HAIL 2               
1 43700U 18090A   20198.69916035  .00000153  00000-0  00000+0 0  9999
2 43700   0.0230  42.0012 0000879 169.1168   1.3898  1.00273698  6243
FOX-1CLIFF (AO-95)      
1 43770U 18099N   20198.48982597  .00000429  00000-0  44371-4 0  9998
2 43770  97.7048 269.3630 0016234  99.6156 260.6899 14.95007031 88252
ITASAT 1                
1 43786U 18099AE  20198.61402616  .00000574  00000-0  57144-4 0  9992
2 43786  97.7063 269.9254 0016860  93.7102 266.6047 14.95342546 88293
JY1SAT (JO-97)          
1 43803U 18099AX  20198.15673149  .00000512  00000-0  51315-4 0  9998
2 43803  97.7024 269.2878 0016867  95.1933 265.1214 14.95524002 88222
PSAT2 (NO-104)          
1 44354U 19036R   20198.26224594  .00007152  00000-0  10126-3 0  9991
2 44354  28.5311 191.3608 0362738 258.7497  97.2124 15.03826063 58160
BRICSAT2 (NO-103)       
1 44355U 19036S   20198.29740600  .00014049  00000-0  19355-3 0  9992
2 44355  28.5309 180.8961 0340258 275.7603  80.4298 15.09504800 58270
JAISAT-1                
1 44419U 19038F   20198.32815149  .00000586  00000-0  36917-4 0  9995
2 44419  97.5403 159.5885 0022625  34.9330 325.3380 15.12817920 56968
DUCHIFAT-3              
1 44854U 19089C   20198.60203232  .00000175  00000-0  20572-4 0  9993
2 44854  36.9689 286.0902 0009746 300.7716  59.2072 14.99083965 32672
RS-44 & BREEZE-KM R/B   
1 44909U 19096E   20198.36454637  .00000019  00000-0  28555-4 0  9998
2 44909  82.5229 336.1000 0217905 158.6600 202.3763 12.79708295 25885
ORBITAL FACTORY 2 (OF-2)
1 45113U 19071C   20198.48577995  .00000942  00000-0  40248-4 0  9993
2 45113  51.6430 223.2925 0013085 160.2626 199.8864 15.33433168 25582
HUSKYSAT-1              
1 45119U 19071J   20198.59046396  .00000681  00000-0  32131-4 0  9999
2 45119  51.6423 222.4923 0012413 157.0908 203.0630 15.33643637 25594
